[{"OBJECT_NAME":"YAOGAN-35 01C","OBJECT_ID":"2021-101D","EPOCH":"2026-03-09T23:21:58.673664","MEAN_MOTION":15.23336833,"ECCENTRICITY":0.00093494,"INCLINATION":35.0028,"RA_OF_ASC_NODE":168.8735,"ARG_OF_PERICENTER":247.0598,"MEAN_ANOMALY":112.9131,"EPHEMERIS_TYPE":0,"CLASSIFICATION_TYPE":"U","NORAD_CAT_ID":49393,"ELEMENT_SET_NO":999,"REV_AT_EPOCH":24187,"BSTAR":0.0007564285,"MEAN_MOTION_DOT":0.00018436,"MEAN_MOTION_DDOT":0},{"OBJECT_NAME":"ASTROCAST-0401","OBJECT_ID":"2023-001DF","EPOCH":"2026-03-09T17:04:53.382144","MEAN_MOTION":15.26258462,"ECCENTRICITY":0.00081423,"INCLINATION":97.5547,"RA_OF_ASC_NODE":160.5206,"ARG_OF_PERICENTER":188.4231,"MEAN_ANOMALY":171.6872,"EPHEMERIS_TYPE":0,"CLASSIFICATION_TYPE":"U","NORAD_CAT_ID":55110,"ELEMENT_SET_NO":999,"REV_AT_EPOCH":17602,"BSTAR":0.00037868349,"MEAN_MOTION_DOT":9.75e-5,"MEAN_MOTION_DDOT":0}]
